[{"OBJECT_NAME":"MESON-1","OBJECT_ID":"2024-043AK","EPOCH":"2026-03-09T21:36:16.481664","MEAN_MOTION":15.29893494,"ECCENTRICITY":0.00095452,"INCLINATION":97.5469,"RA_OF_ASC_NODE":205.2839,"ARG_OF_PERICENTER":227.1432,"MEAN_ANOMALY":132.9007,"EPHEMERIS_TYPE":0,"CLASSIFICATION_TYPE":"U","NORAD_CAT_ID":59131,"ELEMENT_SET_NO":999,"REV_AT_EPOCH":11189,"BSTAR":0.0002974823,"MEAN_MOTION_DOT":8.544e-5,"MEAN_MOTION_DDOT":0},{"OBJECT_NAME":"STARLINK-33966","OBJECT_ID":"2025-117A","EPOCH":"2026-03-09T22:20:25.281888","MEAN_MOTION":15.30218456,"ECCENTRICITY":0.00015058,"INCLINATION":53.1602,"RA_OF_ASC_NODE":38.4181,"ARG_OF_PERICENTER":97.1304,"MEAN_ANOMALY":262.9868,"EPHEMERIS_TYPE":0,"CLASSIFICATION_TYPE":"U","NORAD_CAT_ID":64203,"ELEMENT_SET_NO":999,"REV_AT_EPOCH":4459,"BSTAR":0.00095827645,"MEAN_MOTION_DOT":0.00028146,"MEAN_MOTION_DDOT":0}]
